LEMUR-2-MARACHE-FRAN    
1 63262U 25052BE  26068.70885648  .00008220  00000+0  68460-3 0  9999
2 63262  97.6985 323.5335 0002324  45.7689 314.3725 14.98898773 53859
STARLINK-34085          
1 64036U 25102Q   26068.51594772  .00067507  00000+0  56197-2 0  9995
2 64036  70.0007 114.9898 0003081 264.0355  96.0453 14.98271093 45923
